{"type":"FeatureCollection","features":[{"type":"Feature","geometry":{"type":"Point","coordinates":[12.489554917702236,41.894941956151996]},"properties":{"source":"awmc","source_id":"423025","place_code":"awmc:rome","name_en":"Rome","name_zh":null,"place_type":"urban_area","start_year":null,"end_year":null,"source_props":{"contributo":"rmhorne","descriptio":null,"notes":null,"pleiadesid":"http://pleiades.stoa.org/places/423025","timeperiod":"http://n2t.net/ark:/99152/p03wskdxnzf","title":"Rome","type":"http://vocab.getty.edu/aat/300008347","initial_pr":"http://www.worldcat.org/oclc/43970336","citations":null,"awmc_dataset":"urban_areas"}}},{"type":"Feature","geometry":{"type":"Point","coordinates":[12.285279305724117,41.75567495087236]},"properties":{"source":"awmc","source_id":"422995","place_code":"awmc:ostia","name_en":"Ostia","name_zh":null,"place_type":"urban_area","start_year":null,"end_year":null,"source_props":{"contributo":"rmhorne","descriptio":null,"notes":null,"pleiadesid":"http://pleiades.stoa.org/places/422995","timeperiod":"http://n2t.net/ark:/99152/p03wskdxnzf","title":"Ostia","type":"http://vocab.getty.edu/aat/300008347","initial_pr":"http://www.worldcat.org/oclc/43970336","citations":null,"awmc_dataset":"urban_areas"}}},{"type":"Feature","geometry":{"type":"Point","coordinates":[12.261532284885845,41.78132554051518]},"properties":{"source":"awmc","source_id":"423012","place_code":"awmc:portus","name_en":"Portus","name_zh":null,"place_type":"urban_area","start_year":null,"end_year":null,"source_props":{"contributo":"rmhorne","descriptio":null,"notes":null,"pleiadesid":"http://pleiades.stoa.org/places/423012","timeperiod":"http://n2t.net/ark:/99152/p03wskdxnzf","title":"Portus","type":"http://vocab.getty.edu/aat/300008347","initial_pr":"http://www.worldcat.org/oclc/43970336","citations":null,"awmc_dataset":"urban_areas"}}},{"type":"Feature","geometry":{"type":"Point","coordinates":[12.39977332110908,42.025713010285756]},"properties":{"source":"awmc","source_id":"423116","place_code":"awmc:veii","name_en":"Veii","name_zh":null,"place_type":"urban_area","start_year":null,"end_year":null,"source_props":{"contributo":"rmhorne","descriptio":null,"notes":null,"pleiadesid":"http://pleiades.stoa.org/places/423116","timeperiod":"http://n2t.net/ark:/99152/p03wskdxnzf","title":"Veii","type":"http://vocab.getty.edu/aat/300008347","initial_pr":"http://www.worldcat.org/oclc/43970336","citations":null,"awmc_dataset":"urban_areas"}}},{"type":"Feature","geometry":{"type":"Point","coordinates":[12.510599691781891,41.9739260243781]},"properties":{"source":"awmc","source_id":"422923","place_code":"awmc:fidenae","name_en":"Fidenae","name_zh":null,"place_type":"urban_area","start_year":null,"end_year":null,"source_props":{"contributo":"rmhorne","descriptio":null,"notes":null,"pleiadesid":"http://pleiades.stoa.org/places/422923","timeperiod":"http://n2t.net/ark:/99152/p03wskdxnzf","title":"Fidenae","type":"http://vocab.getty.edu/aat/300008347","initial_pr":"http://www.worldcat.org/oclc/43970336","citations":null,"awmc_dataset":"urban_areas"}}},{"type":"Feature","geometry":{"type":"Point","coordinates":[12.475701921805154,41.66418072445174]},"properties":{"source":"awmc","source_id":"422960","place_code":"awmc:lavinium","name_en":"Lavinium","name_zh":null,"place_type":"urban_area","start_year":null,"end_year":null,"source_props":{"contributo":"rmhorne","descriptio":null,"notes":null,"pleiadesid":"http://pleiades.stoa.org/places/422960","timeperiod":"http://n2t.net/ark:/99152/p03wskdxnzf","title":"Lavinium","type":"http://vocab.getty.edu/aat/300008347","initial_pr":"http://www.worldcat.org/oclc/43970336","citations":null,"awmc_dataset":"urban_areas"}}},{"type":"Feature","geometry":{"type":"Point","coordinates":[12.551526030514083,41.61555083564758]},"properties":{"source":"awmc","source_id":"422843","place_code":"awmc:ardea","name_en":"Ardea","name_zh":null,"place_type":"urban_area","start_year":null,"end_year":null,"source_props":{"contributo":"rmhorne","descriptio":null,"notes":null,"pleiadesid":"http://pleiades.stoa.org/places/422843","timeperiod":"http://n2t.net/ark:/99152/p03wskdxnzf","title":"Ardea","type":"http://vocab.getty.edu/aat/300008347","initial_pr":"http://www.worldcat.org/oclc/43970336","citations":null,"awmc_dataset":"urban_areas"}}},{"type":"Feature","geometry":{"type":"Point","coordinates":[12.105430572686487,42.007703017795706]},"properties":{"source":"awmc","source_id":"422859","place_code":"awmc:caere","name_en":"Caere","name_zh":null,"place_type":"urban_area","start_year":null,"end_year":null,"source_props":{"contributo":"rmhorne","descriptio":null,"notes":null,"pleiadesid":"http://pleiades.stoa.org/places/422859","timeperiod":"http://n2t.net/ark:/99152/p03wskdxnzf","title":"Caere","type":"http://vocab.getty.edu/aat/300008347","initial_pr":"http://www.worldcat.org/oclc/43970336","citations":null,"awmc_dataset":"urban_areas"}}},{"type":"Feature","geometry":{"type":"Point","coordinates":[12.617536289481535,41.7588847128269]},"properties":{"source":"awmc","source_id":"422852","place_code":"awmc:bovillae","name_en":"Bovillae","name_zh":null,"place_type":"urban_area","start_year":null,"end_year":null,"source_props":{"contributo":"rmhorne","descriptio":null,"notes":null,"pleiadesid":"http://pleiades.stoa.org/places/422852","timeperiod":"http://n2t.net/ark:/99152/p03wskdxnzf","title":"Bovillae","type":"http://vocab.getty.edu/aat/300008347","initial_pr":"http://www.worldcat.org/oclc/43970336","citations":null,"awmc_dataset":"urban_areas"}}},{"type":"Feature","geometry":{"type":"Point","coordinates":[12.623651655947157,41.44835656371856]},"properties":{"source":"awmc","source_id":"422837","place_code":"awmc:antium","name_en":"Antium","name_zh":null,"place_type":"urban_area","start_year":null,"end_year":null,"source_props":{"contributo":"rmhorne","descriptio":null,"notes":null,"pleiadesid":"http://pleiades.stoa.org/places/422837","timeperiod":"http://n2t.net/ark:/99152/p03wskdxnzf","title":"Antium","type":"http://vocab.getty.edu/aat/300008347","initial_pr":"http://www.worldcat.org/oclc/43970336","citations":null,"awmc_dataset":"urban_areas"}}},{"type":"Feature","geometry":{"type":"Point","coordinates":[12.694821334631541,41.67649928495757]},"properties":{"source":"awmc","source_id":"422956","place_code":"awmc:lanuvium","name_en":"Lanuvium","name_zh":null,"place_type":"urban_area","start_year":null,"end_year":null,"source_props":{"contributo":"rmhorne","descriptio":null,"notes":null,"pleiadesid":"http://pleiades.stoa.org/places/422956","timeperiod":"http://n2t.net/ark:/99152/p03wskdxnzf","title":"Lanuvium","type":"http://vocab.getty.edu/aat/300008347","initial_pr":"http://www.worldcat.org/oclc/43970336","citations":null,"awmc_dataset":"urban_areas"}}},{"type":"Feature","geometry":{"type":"Point","coordinates":[12.773786127571043,41.68656440501232]},"properties":{"source":"awmc","source_id":"423117","place_code":"awmc:velitrae","name_en":"Velitrae","name_zh":null,"place_type":"urban_area","start_year":null,"end_year":null,"source_props":{"contributo":"rmhorne","descriptio":null,"notes":null,"pleiadesid":"http://pleiades.stoa.org/places/423117","timeperiod":"http://n2t.net/ark:/99152/p03wskdxnzf","title":"Velitrae","type":"http://vocab.getty.edu/aat/300008347","initial_pr":"http://www.worldcat.org/oclc/43970336","citations":null,"awmc_dataset":"urban_areas"}}},{"type":"Feature","geometry":{"type":"Point","coordinates":[12.666810319670958,41.720900027326394]},"properties":{"source":"awmc","source_id":"422844","place_code":"awmc:aricia","name_en":"Aricia","name_zh":null,"place_type":"urban_area","start_year":null,"end_year":null,"source_props":{"contributo":"rmhorne","descriptio":null,"notes":null,"pleiadesid":"http://pleiades.stoa.org/places/422844","timeperiod":"http://n2t.net/ark:/99152/p03wskdxnzf","title":"Aricia","type":"http://vocab.getty.edu/aat/300008347","initial_pr":"http://www.worldcat.org/oclc/43970336","citations":null,"awmc_dataset":"urban_areas"}}},{"type":"Feature","geometry":{"type":"Point","coordinates":[12.653247391937697,41.742600711699566]},"properties":{"source":"awmc","source_id":"423125","place_code":"awmc:villa_domitiani","name_en":"Villa Domitiani","name_zh":null,"place_type":"urban_area","start_year":null,"end_year":null,"source_props":{"contributo":"rmhorne","descriptio":null,"notes":null,"pleiadesid":"http://pleiades.stoa.org/places/423125","timeperiod":"http://n2t.net/ark:/99152/p03wskdxnzf","title":"Villa Domitiani","type":"http://vocab.getty.edu/aat/http://vocab.getty.edu/aat/300005517","initial_pr":"http://www.worldcat.org/oclc/43970336","citations":null,"awmc_dataset":"urban_areas"}}},{"type":"Feature","geometry":{"type":"Point","coordinates":[12.65588859365414,41.73396326824843]},"properties":{"source":"awmc","source_id":"422885","place_code":"awmc:castra_albana","name_en":"Castra Albana","name_zh":null,"place_type":"urban_area","start_year":null,"end_year":null,"source_props":{"contributo":"rmhorne","descriptio":null,"notes":null,"pleiadesid":"http://pleiades.stoa.org/places/422885","timeperiod":"http://n2t.net/ark:/99152/p03wskdxnzf","title":"Castra Albana","type":"http://vocab.getty.edu/aat/http://vocab.getty.edu/aat/300006888","initial_pr":"http://www.worldcat.org/oclc/43970336","citations":null,"awmc_dataset":"urban_areas"}}},{"type":"Feature","geometry":{"type":"Point","coordinates":[12.707784638191328,41.80006469499037]},"properties":{"source":"awmc","source_id":"423108","place_code":"awmc:tusculum","name_en":"Tusculum","name_zh":null,"place_type":"urban_area","start_year":null,"end_year":null,"source_props":{"contributo":"rmhorne","descriptio":null,"notes":null,"pleiadesid":"http://pleiades.stoa.org/places/423108","timeperiod":"http://n2t.net/ark:/99152/p03wskdxnzf","title":"Tusculum","type":"http://vocab.getty.edu/aat/300008347","initial_pr":"http://www.worldcat.org/oclc/43970336","citations":null,"awmc_dataset":"urban_areas"}}},{"type":"Feature","geometry":{"type":"Point","coordinates":[12.715993778661442,41.89293505804787]},"properties":{"source":"awmc","source_id":"422932","place_code":"awmc:gabii","name_en":"Gabii","name_zh":null,"place_type":"urban_area","start_year":null,"end_year":null,"source_props":{"contributo":"rmhorne","descriptio":null,"notes":null,"pleiadesid":"http://pleiades.stoa.org/places/422932","timeperiod":"http://n2t.net/ark:/99152/p03wskdxnzf","title":"Gabii","type":"http://vocab.getty.edu/aat/300008347","initial_pr":"http://www.worldcat.org/oclc/43970336","citations":null,"awmc_dataset":"urban_areas"}}},{"type":"Feature","geometry":{"type":"Point","coordinates":[12.64410755774233,42.02289923530219]},"properties":{"source":"awmc","source_id":"422986","place_code":"awmc:nomentum","name_en":"Nomentum","name_zh":null,"place_type":"urban_area","start_year":null,"end_year":null,"source_props":{"contributo":"rmhorne","descriptio":null,"notes":null,"pleiadesid":"http://pleiades.stoa.org/places/422986","timeperiod":"http://n2t.net/ark:/99152/p03wskdxnzf","title":"Nomentum","type":"http://vocab.getty.edu/aat/300008347","initial_pr":"http://www.worldcat.org/oclc/43970336","citations":null,"awmc_dataset":"urban_areas"}}},{"type":"Feature","geometry":{"type":"Point","coordinates":[12.645868358886702,41.972454661978645]},"properties":{"source":"awmc","source_id":"422922","place_code":"awmc:ficulea","name_en":"Ficulea","name_zh":null,"place_type":"urban_area","start_year":null,"end_year":null,"source_props":{"contributo":"rmhorne","descriptio":null,"notes":null,"pleiadesid":"http://pleiades.stoa.org/places/422922","timeperiod":"http://n2t.net/ark:/99152/p03wskdxnzf","title":"Ficulea","type":"http://vocab.getty.edu/aat/300008347","initial_pr":"http://www.worldcat.org/oclc/43970336","citations":null,"awmc_dataset":"urban_areas"}}},{"type":"Feature","geometry":{"type":"Point","coordinates":[12.741453290375063,42.026282035698785]},"properties":{"source":"awmc","source_id":"422910","place_code":"awmc:corniculum","name_en":"Corniculum","name_zh":null,"place_type":"urban_area","start_year":null,"end_year":null,"source_props":{"contributo":"rmhorne","descriptio":null,"notes":null,"pleiadesid":"http://pleiades.stoa.org/places/422910","timeperiod":"http://n2t.net/ark:/99152/p03wskdxnzf","title":"Corniculum","type":"http://vocab.getty.edu/aat/300008347","initial_pr":"http://www.worldcat.org/oclc/43970336","citations":null,"awmc_dataset":"urban_areas"}}},{"type":"Feature","geometry":{"type":"Point","coordinates":[12.795495608739401,41.96684309977323]},"properties":{"source":"awmc","source_id":"423081","place_code":"awmc:tibur","name_en":"Tibur","name_zh":null,"place_type":"urban_area","start_year":null,"end_year":null,"source_props":{"contributo":"rmhorne","descriptio":null,"notes":null,"pleiadesid":"http://pleiades.stoa.org/places/423081","timeperiod":"http://n2t.net/ark:/99152/p03wskdxnzf","title":"Tibur","type":"http://vocab.getty.edu/aat/300008347","initial_pr":"http://www.worldcat.org/oclc/43970336","citations":null,"awmc_dataset":"urban_areas"}}},{"type":"Feature","geometry":{"type":"Point","coordinates":[12.77247670296913,41.94432863973603]},"properties":{"source":"awmc","source_id":"423127","place_code":"awmc:villa_hadriani","name_en":"Villa Hadriani","name_zh":null,"place_type":"urban_area","start_year":null,"end_year":null,"source_props":{"contributo":"rmhorne","descriptio":null,"notes":null,"pleiadesid":"http://pleiades.stoa.org/places/423127","timeperiod":"http://n2t.net/ark:/99152/p03wskdxnzf","title":"Villa Hadriani","type":"http://vocab.getty.edu/aat/http://vocab.getty.edu/aat/300005517","initial_pr":"http://www.worldcat.org/oclc/43970336","citations":null,"awmc_dataset":"urban_areas"}}},{"type":"Feature","geometry":{"type":"Point","coordinates":[12.785325792400585,41.93058725242739]},"properties":{"source":"awmc","source_id":"423124","place_code":"awmc:villa_di_viblio_varo","name_en":"Villa di Viblio-Varo","name_zh":null,"place_type":"urban_area","start_year":null,"end_year":null,"source_props":{"contributo":"rmhorne","descriptio":null,"notes":null,"pleiadesid":"http://pleiades.stoa.org/places/423124","timeperiod":"http://n2t.net/ark:/99152/p03wskdxnzf","title":"Villa di Viblio-Varo","type":"http://vocab.getty.edu/aat/http://vocab.getty.edu/aat/300005517","initial_pr":"http://www.worldcat.org/oclc/43970336","citations":null,"awmc_dataset":"urban_areas"}}},{"type":"Feature","geometry":{"type":"Point","coordinates":[12.888215669176788,41.843261033513386]},"properties":{"source":"awmc","source_id":"423013","place_code":"awmc:praeneste","name_en":"Praeneste","name_zh":null,"place_type":"urban_area","start_year":null,"end_year":null,"source_props":{"contributo":"rmhorne","descriptio":null,"notes":null,"pleiadesid":"http://pleiades.stoa.org/places/423013","timeperiod":"http://n2t.net/ark:/99152/p03wskdxnzf","title":"Praeneste","type":"http://vocab.getty.edu/aat/300008347","initial_pr":"http://www.worldcat.org/oclc/43970336","citations":null,"awmc_dataset":"urban_areas"}}},{"type":"Feature","geometry":{"type":"Point","coordinates":[12.910404143056212,41.72553720024999]},"properties":{"source":"awmc","source_id":"422845","place_code":"awmc:artena","name_en":"Artena","name_zh":null,"place_type":"urban_area","start_year":null,"end_year":null,"source_props":{"contributo":"rmhorne","descriptio":null,"notes":null,"pleiadesid":"http://pleiades.stoa.org/places/422845","timeperiod":"http://n2t.net/ark:/99152/p03wskdxnzf","title":"Artena","type":"http://vocab.getty.edu/aat/300008347","initial_pr":"http://www.worldcat.org/oclc/43970336","citations":null,"awmc_dataset":"urban_areas"}}},{"type":"Feature","geometry":{"type":"Point","coordinates":[12.820555695476088,41.60745644783566]},"properties":{"source":"awmc","source_id":"423005","place_code":"awmc:pometia","name_en":"Pometia","name_zh":null,"place_type":"urban_area","start_year":null,"end_year":null,"source_props":{"contributo":"rmhorne","descriptio":null,"notes":null,"pleiadesid":"http://pleiades.stoa.org/places/423005","timeperiod":"http://n2t.net/ark:/99152/p03wskdxnzf","title":"Pometia","type":"http://vocab.getty.edu/aat/300008347","initial_pr":"http://www.worldcat.org/oclc/43970336","citations":null,"awmc_dataset":"urban_areas"}}},{"type":"Feature","geometry":{"type":"Point","coordinates":[12.910820548732204,41.64338630902364]},"properties":{"source":"awmc","source_id":"422909","place_code":"awmc:cora","name_en":"Cora","name_zh":null,"place_type":"urban_area","start_year":null,"end_year":null,"source_props":{"contributo":"rmhorne","descriptio":null,"notes":null,"pleiadesid":"http://pleiades.stoa.org/places/422909","timeperiod":"http://n2t.net/ark:/99152/p03wskdxnzf","title":"Cora","type":"http://vocab.getty.edu/aat/300008347","initial_pr":"http://www.worldcat.org/oclc/43970336","citations":null,"awmc_dataset":"urban_areas"}}},{"type":"Feature","geometry":{"type":"Point","coordinates":[12.746267408671486,41.51170607170246]},"properties":{"source":"awmc","source_id":"423060","place_code":"awmc:satricum","name_en":"Satricum","name_zh":null,"place_type":"urban_area","start_year":null,"end_year":null,"source_props":{"contributo":"rmhorne","descriptio":null,"notes":null,"pleiadesid":"http://pleiades.stoa.org/places/423060","timeperiod":"http://n2t.net/ark:/99152/p03wskdxnzf","title":"Satricum","type":"http://vocab.getty.edu/aat/300008347","initial_pr":"http://www.worldcat.org/oclc/43970336","citations":null,"awmc_dataset":"urban_areas"}}},{"type":"Feature","geometry":{"type":"Point","coordinates":[12.95681989847904,41.592262257626345]},"properties":{"source":"awmc","source_id":"422987","place_code":"awmc:norba","name_en":"Norba","name_zh":null,"place_type":"urban_area","start_year":null,"end_year":null,"source_props":{"contributo":"rmhorne","descriptio":null,"notes":null,"pleiadesid":"http://pleiades.stoa.org/places/422987","timeperiod":"http://n2t.net/ark:/99152/p03wskdxnzf","title":"Norba","type":"http://vocab.getty.edu/aat/300008347","initial_pr":"http://www.worldcat.org/oclc/43970336","citations":null,"awmc_dataset":"urban_areas"}}},{"type":"Feature","geometry":{"type":"Point","coordinates":[13.055424762560648,41.499034975418]},"properties":{"source":"awmc","source_id":"423068","place_code":"awmc:setia","name_en":"Setia","name_zh":null,"place_type":"urban_area","start_year":null,"end_year":null,"source_props":{"contributo":"rmhorne","descriptio":null,"notes":null,"pleiadesid":"http://pleiades.stoa.org/places/423068","timeperiod":"http://n2t.net/ark:/99152/p03wskdxnzf","title":"Setia","type":"http://vocab.getty.edu/aat/300008347","initial_pr":"http://www.worldcat.org/oclc/43970336","citations":null,"awmc_dataset":"urban_areas"}}},{"type":"Feature","geometry":{"type":"Point","coordinates":[13.020915011290157,41.6965189746777]},"properties":{"source":"awmc","source_id":"423072","place_code":"awmc:signia","name_en":"Signia","name_zh":null,"place_type":"urban_area","start_year":null,"end_year":null,"source_props":{"contributo":"rmhorne","descriptio":null,"notes":null,"pleiadesid":"http://pleiades.stoa.org/places/423072","timeperiod":"http://n2t.net/ark:/99152/p03wskdxnzf","title":"Signia","type":"http://vocab.getty.edu/aat/300008347","initial_pr":"http://www.worldcat.org/oclc/43970336","citations":null,"awmc_dataset":"urban_areas"}}},{"type":"Feature","geometry":{"type":"Point","coordinates":[13.1545217467675,41.74479110010296]},"properties":{"source":"awmc","source_id":"422833","place_code":"awmc:anagnia","name_en":"Anagnia","name_zh":null,"place_type":"urban_area","start_year":null,"end_year":null,"source_props":{"contributo":"rmhorne","descriptio":null,"notes":null,"pleiadesid":"http://pleiades.stoa.org/places/422833","timeperiod":"http://n2t.net/ark:/99152/p03wskdxnzf","title":"Anagnia","type":"http://vocab.getty.edu/aat/300008347","initial_pr":"http://www.worldcat.org/oclc/43970336","citations":null,"awmc_dataset":"urban_areas"}}},{"type":"Feature","geometry":{"type":"Point","coordinates":[13.107052689431697,41.92280953789077]},"properties":{"source":"awmc","source_id":"423131","place_code":"awmc:villa_neronis","name_en":"Villa Neronis","name_zh":null,"place_type":"urban_area","start_year":null,"end_year":null,"source_props":{"contributo":"rmhorne","descriptio":null,"notes":null,"pleiadesid":"http://pleiades.stoa.org/places/423131","timeperiod":"http://n2t.net/ark:/99152/p03wskdxnzf","title":"Villa Neronis","type":"http://vocab.getty.edu/aat/http://vocab.getty.edu/aat/300005517","initial_pr":"http://www.worldcat.org/oclc/43970336","citations":null,"awmc_dataset":"urban_areas"}}},{"type":"Feature","geometry":{"type":"Point","coordinates":[11.629405421926805,42.41883537410419]},"properties":{"source":"awmc","source_id":"413393","place_code":"awmc:vulci","name_en":"Vulci","name_zh":null,"place_type":"urban_area","start_year":null,"end_year":null,"source_props":{"contributo":"rmhorne","descriptio":null,"notes":null,"pleiadesid":"http://pleiades.stoa.org/places/413393","timeperiod":"http://n2t.net/ark:/99152/p03wskdxnzf","title":"Vulci","type":"http://vocab.getty.edu/aat/300008347","initial_pr":"http://www.worldcat.org/oclc/43970336","citations":null,"awmc_dataset":"urban_areas"}}},{"type":"Feature","geometry":{"type":"Point","coordinates":[12.416895180189442,42.29148424161119]},"properties":{"source":"awmc","source_id":"413126","place_code":"awmc:falerii_veteres","name_en":"Falerii Veteres","name_zh":null,"place_type":"urban_area","start_year":null,"end_year":null,"source_props":{"contributo":"rmhorne","descriptio":null,"notes":null,"pleiadesid":"http://pleiades.stoa.org/places/413126","timeperiod":"http://n2t.net/ark:/99152/p03wskdxnzf","title":"Falerii Veteres","type":"http://vocab.getty.edu/aat/300008347","initial_pr":"http://www.worldcat.org/oclc/43970336","citations":null,"awmc_dataset":"urban_areas"}}},{"type":"Feature","geometry":{"type":"Point","coordinates":[12.109183282915495,42.72169079146525]},"properties":{"source":"awmc","source_id":"413373","place_code":"awmc:velzna_volsinii_veteres_urbiventus","name_en":"Velzna/Volsinii Veteres/Urbiventus","name_zh":null,"place_type":"urban_area","start_year":null,"end_year":null,"source_props":{"contributo":"rmhorne","descriptio":null,"notes":null,"pleiadesid":"http://pleiades.stoa.org/places/413373","timeperiod":"http://n2t.net/ark:/99152/p03wskdxnzf","title":"Velzna/Volsinii Veteres/Urbiventus","type":"http://vocab.getty.edu/aat/300008347","initial_pr":"http://www.worldcat.org/oclc/43970336","citations":null,"awmc_dataset":"urban_areas"}}},{"type":"Feature","geometry":{"type":"Point","coordinates":[11.878090030029227,43.46855601197524]},"properties":{"source":"awmc","source_id":"413032","place_code":"awmc:arretium","name_en":"Arretium","name_zh":null,"place_type":"urban_area","start_year":null,"end_year":null,"source_props":{"contributo":"rmhorne","descriptio":null,"notes":null,"pleiadesid":"http://pleiades.stoa.org/places/413032","timeperiod":"http://n2t.net/ark:/99152/p03wskdxnzf","title":"Arretium","type":"http://vocab.getty.edu/aat/300008347","initial_pr":"http://www.worldcat.org/oclc/43970336","citations":null,"awmc_dataset":"urban_areas"}}},{"type":"Feature","geometry":{"type":"Point","coordinates":[13.580835300127632,42.855729795692014]},"properties":{"source":"awmc","source_id":"413036","place_code":"awmc:asculum","name_en":"Asculum","name_zh":null,"place_type":"urban_area","start_year":null,"end_year":null,"source_props":{"contributo":"rmhorne","descriptio":null,"notes":null,"pleiadesid":"http://pleiades.stoa.org/places/413036","timeperiod":"http://n2t.net/ark:/99152/p03wskdxnzf","title":"Asculum","type":"http://vocab.getty.edu/aat/300008347","initial_pr":"http://www.worldcat.org/oclc/43970336","citations":null,"awmc_dataset":"urban_areas"}}},{"type":"Feature","geometry":{"type":"Point","coordinates":[13.510347337021443,43.625747171788845]},"properties":{"source":"awmc","source_id":"413014","place_code":"awmc:ancon_a","name_en":"Ancon(a)","name_zh":null,"place_type":"urban_area","start_year":null,"end_year":null,"source_props":{"contributo":"rmhorne","descriptio":null,"notes":null,"pleiadesid":"http://pleiades.stoa.org/places/413014","timeperiod":"http://n2t.net/ark:/99152/p03wskdxnzf","title":"Ancon(a)","type":"http://vocab.getty.edu/aat/300008347","initial_pr":"http://www.worldcat.org/oclc/43970336","citations":null,"awmc_dataset":"urban_areas"}}},{"type":"Feature","geometry":{"type":"Point","coordinates":[10.49593509332206,43.84921821791974]},"properties":{"source":"awmc","source_id":"Luca","place_code":"awmc:luca","name_en":"Luca","name_zh":null,"place_type":"urban_area","start_year":null,"end_year":null,"source_props":{"contributo":null,"descriptio":null,"notes":null,"pleiadesid":null,"timeperiod":"http://n2t.net/ark:/99152/p03wskdxnzf","title":"Luca","type":"http://vocab.getty.edu/aat/300008347","initial_pr":"http://www.worldcat.org/oclc/43970336","citations":null,"awmc_dataset":"urban_areas"}}},{"type":"Feature","geometry":{"type":"Point","coordinates":[10.39778232683156,43.72176833779494]},"properties":{"source":"awmc","source_id":"403253","place_code":"awmc:pisae","name_en":"Pisae","name_zh":null,"place_type":"urban_area","start_year":null,"end_year":null,"source_props":{"contributo":"rmhorne","descriptio":null,"notes":null,"pleiadesid":"http://pleiades.stoa.org/places/403253","timeperiod":"http://n2t.net/ark:/99152/p03wskdxnzf","title":"Pisae","type":"http://vocab.getty.edu/aat/300008347","initial_pr":"http://www.worldcat.org/oclc/43970336","citations":null,"awmc_dataset":"urban_areas"}}},{"type":"Feature","geometry":{"type":"Point","coordinates":[15.565691053384626,38.1890664273221]},"properties":{"source":"awmc","source_id":"462538","place_code":"awmc:zancle_messana","name_en":"Zancle/Messana","name_zh":null,"place_type":"urban_area","start_year":null,"end_year":null,"source_props":{"contributo":"rmhorne","descriptio":null,"notes":null,"pleiadesid":"http://pleiades.stoa.org/places/462538","timeperiod":"http://n2t.net/ark:/99152/p03wskdxnzf","title":"Zancle/Messana","type":"http://vocab.getty.edu/aat/300008347","initial_pr":"http://www.worldcat.org/oclc/43970336","citations":null,"awmc_dataset":"urban_areas"}}},{"type":"Feature","geometry":{"type":"Point","coordinates":[15.288721792306006,37.07024386238075]},"properties":{"source":"awmc","source_id":"462503","place_code":"awmc:syracuse","name_en":"Syracuse","name_zh":null,"place_type":"urban_area","start_year":null,"end_year":null,"source_props":{"contributo":"rmhorne","descriptio":null,"notes":null,"pleiadesid":"http://pleiades.stoa.org/places/462503","timeperiod":"http://n2t.net/ark:/99152/p03wskdxnzf","title":"Syracuse","type":"http://vocab.getty.edu/aat/300008347","initial_pr":"http://www.worldcat.org/oclc/43970336","citations":null,"awmc_dataset":"urban_areas"}}},{"type":"Feature","geometry":{"type":"Point","coordinates":[14.248183494456441,37.066793643922296]},"properties":{"source":"awmc","source_id":"462214","place_code":"awmc:gela","name_en":"Gela","name_zh":null,"place_type":"urban_area","start_year":null,"end_year":null,"source_props":{"contributo":"rmhorne","descriptio":null,"notes":null,"pleiadesid":"http://pleiades.stoa.org/places/462214","timeperiod":"http://n2t.net/ark:/99152/p03wskdxnzf","title":"Gela","type":"http://vocab.getty.edu/aat/300008347","initial_pr":"http://www.worldcat.org/oclc/43970336","citations":null,"awmc_dataset":"urban_areas"}}},{"type":"Feature","geometry":{"type":"Point","coordinates":[13.589548688042555,37.303906933153286]},"properties":{"source":"awmc","source_id":"462086","place_code":"awmc:akragas_agrigentum","name_en":"Akragas/Agrigentum","name_zh":null,"place_type":"urban_area","start_year":null,"end_year":null,"source_props":{"contributo":"rmhorne","descriptio":null,"notes":null,"pleiadesid":"http://pleiades.stoa.org/places/462086","timeperiod":"http://n2t.net/ark:/99152/p03wskdxnzf","title":"Akragas/Agrigentum","type":"http://vocab.getty.edu/aat/300008347","initial_pr":"http://www.worldcat.org/oclc/43970336","citations":null,"awmc_dataset":"urban_areas"}}},{"type":"Feature","geometry":{"type":"Point","coordinates":[12.827645273975747,37.59503398721657]},"properties":{"source":"awmc","source_id":"462489","place_code":"awmc:selinus","name_en":"Selinus","name_zh":null,"place_type":"urban_area","start_year":null,"end_year":null,"source_props":{"contributo":"rmhorne","descriptio":null,"notes":null,"pleiadesid":"http://pleiades.stoa.org/places/462489","timeperiod":"http://n2t.net/ark:/99152/p03wskdxnzf","title":"Selinus","type":"http://vocab.getty.edu/aat/300008347","initial_pr":"http://www.worldcat.org/oclc/43970336","citations":null,"awmc_dataset":"urban_areas"}}},{"type":"Feature","geometry":{"type":"Point","coordinates":[12.439555183924881,37.80109531032144]},"properties":{"source":"awmc","source_id":"462281","place_code":"awmc:lilybaeum","name_en":"Lilybaeum","name_zh":null,"place_type":"urban_area","start_year":null,"end_year":null,"source_props":{"contributo":"rmhorne","descriptio":null,"notes":null,"pleiadesid":"http://pleiades.stoa.org/places/462281","timeperiod":"http://n2t.net/ark:/99152/p03wskdxnzf","title":"Lilybaeum","type":"http://vocab.getty.edu/aat/300008347","initial_pr":"http://www.worldcat.org/oclc/43970336","citations":null,"awmc_dataset":"urban_areas"}}},{"type":"Feature","geometry":{"type":"Point","coordinates":[13.352435398811679,38.133268066735354]},"properties":{"source":"awmc","source_id":"462410","place_code":"awmc:pan_h_ormus","name_en":"Pan(H)ormus","name_zh":null,"place_type":"urban_area","start_year":null,"end_year":null,"source_props":{"contributo":"rmhorne","descriptio":null,"notes":null,"pleiadesid":"http://pleiades.stoa.org/places/462410","timeperiod":"http://n2t.net/ark:/99152/p03wskdxnzf","title":"Pan(H)ormus","type":"http://vocab.getty.edu/aat/300008347","initial_pr":"http://www.worldcat.org/oclc/43970336","citations":null,"awmc_dataset":"urban_areas"}}},{"type":"Feature","geometry":{"type":"Point","coordinates":[36.17265617522688,36.20776320934712]},"properties":{"source":"awmc","source_id":"658381","place_code":"awmc:antiochia_theoupolis","name_en":"Antiochia/Theoupolis","name_zh":null,"place_type":"urban_area","start_year":null,"end_year":null,"source_props":{"contributo":"rmhorne","descriptio":null,"notes":null,"pleiadesid":"http://pleiades.stoa.org/places/658381","timeperiod":"http://n2t.net/ark:/99152/p03wskdxnzf","title":"Antiochia/Theoupolis","type":"http://vocab.getty.edu/aat/300008347","initial_pr":"http://www.worldcat.org/oclc/43970336","citations":null,"awmc_dataset":"urban_areas"}}},{"type":"Feature","geometry":{"type":"Point","coordinates":[35.94070631637854,36.126385642947696]},"properties":{"source":"awmc","source_id":"658483","place_code":"awmc:seleukeia_pieria","name_en":"Seleukeia Pieria","name_zh":null,"place_type":"urban_area","start_year":null,"end_year":null,"source_props":{"contributo":"rmhorne","descriptio":null,"notes":null,"pleiadesid":"http://pleiades.stoa.org/places/658483","timeperiod":"http://n2t.net/ark:/99152/p03wskdxnzf","title":"Seleukeia Pieria","type":"http://vocab.getty.edu/aat/300008347","initial_pr":"http://www.worldcat.org/oclc/43970336","citations":null,"awmc_dataset":"urban_areas"}}},{"type":"Feature","geometry":{"type":"Point","coordinates":[38.792423706957834,37.158215113515894]},"properties":{"source":"awmc","source_id":"658457","place_code":"awmc:edessa_antiochia_ad_callirhoem","name_en":"Edessa/Antiochia ad Callirhoem","name_zh":null,"place_type":"urban_area","start_year":null,"end_year":null,"source_props":{"contributo":"rmhorne","descriptio":null,"notes":null,"pleiadesid":"http://pleiades.stoa.org/places/658457","timeperiod":"http://n2t.net/ark:/99152/p03wskdxnzf","title":"Edessa/Antiochia ad Callirhoem","type":"http://vocab.getty.edu/aat/300008347","initial_pr":"http://www.worldcat.org/oclc/43970336","citations":null,"awmc_dataset":"urban_areas"}}},{"type":"Feature","geometry":{"type":"Point","coordinates":[38.5179861923894,37.52864960290347]},"properties":{"source":"awmc","source_id":"658587","place_code":"awmc:samosata","name_en":"Samosata","name_zh":null,"place_type":"urban_area","start_year":null,"end_year":null,"source_props":{"contributo":"rmhorne","descriptio":null,"notes":null,"pleiadesid":"http://pleiades.stoa.org/places/658587","timeperiod":"http://n2t.net/ark:/99152/p03wskdxnzf","title":"Samosata","type":"http://vocab.getty.edu/aat/300008347","initial_pr":"http://www.worldcat.org/oclc/43970336","citations":null,"awmc_dataset":"urban_areas"}}},{"type":"Feature","geometry":{"type":"Point","coordinates":[29.91528287191062,31.20026386361795]},"properties":{"source":"awmc","source_id":"727070","place_code":"awmc:alexandria","name_en":"Alexandria","name_zh":null,"place_type":"urban_area","start_year":null,"end_year":null,"source_props":{"contributo":"rmhorne","descriptio":null,"notes":null,"pleiadesid":"http://pleiades.stoa.org/places/727070","timeperiod":"http://n2t.net/ark:/99152/p03wskdxnzf","title":"Alexandria","type":"http://vocab.getty.edu/aat/300008347","initial_pr":"http://www.worldcat.org/oclc/43970336","citations":null,"awmc_dataset":"urban_areas"}}},{"type":"Feature","geometry":{"type":"Point","coordinates":[10.322822761629823,36.84649481588946]},"properties":{"source":"awmc","source_id":"314921","place_code":"awmc:carthago","name_en":"Carthago","name_zh":null,"place_type":"urban_area","start_year":null,"end_year":null,"source_props":{"contributo":"rmhorne","descriptio":null,"notes":null,"pleiadesid":"http://pleiades.stoa.org/places/314921","timeperiod":"http://n2t.net/ark:/99152/p03wskdxnzf","title":"Carthago","type":"http://vocab.getty.edu/aat/300008347","initial_pr":"http://www.worldcat.org/oclc/43970336","citations":null,"awmc_dataset":"urban_areas"}}},{"type":"Feature","geometry":{"type":"Point","coordinates":[-5.797259663859251,35.79727892118419]},"properties":{"source":"awmc","source_id":"275736","place_code":"awmc:tingi","name_en":"Tingi","name_zh":null,"place_type":"urban_area","start_year":null,"end_year":null,"source_props":{"contributo":"rmhorne","descriptio":null,"notes":null,"pleiadesid":"http://pleiades.stoa.org/places/275736","timeperiod":"http://n2t.net/ark:/99152/p03wskdxnzf","title":"Tingi","type":"http://vocab.getty.edu/aat/300008347","initial_pr":"http://www.worldcat.org/oclc/43970336","citations":null,"awmc_dataset":"urban_areas"}}},{"type":"Feature","geometry":{"type":"Point","coordinates":[5.3660595802729585,43.30654889050455]},"properties":{"source":"awmc","source_id":"148127","place_code":"awmc:massalia_massilia","name_en":"Massalia/Massilia","name_zh":null,"place_type":"urban_area","start_year":null,"end_year":null,"source_props":{"contributo":"rmhorne","descriptio":null,"notes":null,"pleiadesid":"http://pleiades.stoa.org/places/148127","timeperiod":"http://n2t.net/ark:/99152/p03wskdxnzf","title":"Massalia/Massilia","type":"http://vocab.getty.edu/aat/300008347","initial_pr":"http://www.worldcat.org/oclc/43970336","citations":null,"awmc_dataset":"urban_areas"}}},{"type":"Feature","geometry":{"type":"Point","coordinates":[4.35747400461733,43.845517899867474]},"properties":{"source":"awmc","source_id":"148142","place_code":"awmc:nemausus","name_en":"Nemausus","name_zh":null,"place_type":"urban_area","start_year":null,"end_year":null,"source_props":{"contributo":"rmhorne","descriptio":null,"notes":null,"pleiadesid":"http://pleiades.stoa.org/places/148142","timeperiod":"http://n2t.net/ark:/99152/p03wskdxnzf","title":"Nemausus","type":"http://vocab.getty.edu/aat/300008347","initial_pr":"http://www.worldcat.org/oclc/43970336","citations":null,"awmc_dataset":"urban_areas"}}},{"type":"Feature","geometry":{"type":"Point","coordinates":[4.629600586656949,43.68872474456492]},"properties":{"source":"awmc","source_id":"148217","place_code":"awmc:theline_col_arelate_constantina","name_en":"Theline/Col. Arelate/Constantina","name_zh":null,"place_type":"urban_area","start_year":null,"end_year":null,"source_props":{"contributo":"rmhorne","descriptio":null,"notes":null,"pleiadesid":"http://pleiades.stoa.org/places/148217","timeperiod":"http://n2t.net/ark:/99152/p03wskdxnzf","title":"Theline/Col. Arelate/Constantina","type":"http://vocab.getty.edu/aat/300008347","initial_pr":"http://www.worldcat.org/oclc/43970336","citations":null,"awmc_dataset":"urban_areas"}}},{"type":"Feature","geometry":{"type":"Point","coordinates":[5.444864689170657,43.53562527417091]},"properties":{"source":"awmc","source_id":"148053","place_code":"awmc:col_aquae_sextiae","name_en":"Col. Aquae Sextiae","name_zh":null,"place_type":"urban_area","start_year":null,"end_year":null,"source_props":{"contributo":"rmhorne","descriptio":null,"notes":null,"pleiadesid":"http://pleiades.stoa.org/places/148053","timeperiod":"http://n2t.net/ark:/99152/p03wskdxnzf","title":"Col. Aquae Sextiae","type":"http://vocab.getty.edu/aat/300008347","initial_pr":"http://www.worldcat.org/oclc/43970336","citations":null,"awmc_dataset":"urban_areas"}}},{"type":"Feature","geometry":{"type":"Point","coordinates":[4.821138382267065,45.76996770042706]},"properties":{"source":"awmc","source_id":"167717","place_code":"awmc:col_lugdunum","name_en":"Col. Lugdunum","name_zh":null,"place_type":"urban_area","start_year":null,"end_year":null,"source_props":{"contributo":"rmhorne","descriptio":null,"notes":null,"pleiadesid":"http://pleiades.stoa.org/places/167717","timeperiod":"http://n2t.net/ark:/99152/p03wskdxnzf","title":"Col. Lugdunum","type":"http://vocab.getty.edu/aat/300008347","initial_pr":"http://www.worldcat.org/oclc/43970336","citations":null,"awmc_dataset":"urban_areas"}}},{"type":"Feature","geometry":{"type":"Point","coordinates":[4.874557579280577,45.52579431244581]},"properties":{"source":"awmc","source_id":"167719","place_code":"awmc:col_vienna","name_en":"Col. Vienna","name_zh":null,"place_type":"urban_area","start_year":null,"end_year":null,"source_props":{"contributo":"rmhorne","descriptio":null,"notes":null,"pleiadesid":"http://pleiades.stoa.org/places/167719","timeperiod":"http://n2t.net/ark:/99152/p03wskdxnzf","title":"Col. Vienna","type":"http://vocab.getty.edu/aat/300008347","initial_pr":"http://www.worldcat.org/oclc/43970336","citations":null,"awmc_dataset":"urban_areas"}}},{"type":"Feature","geometry":{"type":"Point","coordinates":[29.016954609864058,41.031603134857335]},"properties":{"source":"awmc","source_id":"520995","place_code":"awmc:chrysopolis","name_en":"Chrysopolis","name_zh":null,"place_type":"urban_area","start_year":null,"end_year":null,"source_props":{"contributo":"rmhorne","descriptio":null,"notes":null,"pleiadesid":"http://pleiades.stoa.org/places/520995","timeperiod":"http://n2t.net/ark:/99152/p03wskdxnzf","title":"Chrysopolis","type":"http://vocab.getty.edu/aat/300008347","initial_pr":"http://www.worldcat.org/oclc/43970336","citations":null,"awmc_dataset":"urban_areas"}}},{"type":"Feature","geometry":{"type":"Point","coordinates":[29.031112402848805,40.99365073181434]},"properties":{"source":"awmc","source_id":"520988","place_code":"awmc:chalcedon","name_en":"Chalcedon","name_zh":null,"place_type":"urban_area","start_year":null,"end_year":null,"source_props":{"contributo":"rmhorne","descriptio":null,"notes":null,"pleiadesid":"http://pleiades.stoa.org/places/520988","timeperiod":"http://n2t.net/ark:/99152/p03wskdxnzf","title":"Chalcedon","type":"http://vocab.getty.edu/aat/300008347","initial_pr":"http://www.worldcat.org/oclc/43970336","citations":null,"awmc_dataset":"urban_areas"}}},{"type":"Feature","geometry":{"type":"Point","coordinates":[29.924266885997156,40.770219343366875]},"properties":{"source":"awmc","source_id":"urban_areas#64","place_code":"awmc:urban_areas_unnamed_64","name_en":null,"name_zh":null,"place_type":"urban_area","start_year":null,"end_year":null,"source_props":{"contributo":null,"descriptio":null,"notes":null,"pleiadesid":null,"timeperiod":null,"title":null,"type":null,"initial_pr":null,"citations":null,"awmc_dataset":"urban_areas"}}},{"type":"Feature","geometry":{"type":"Point","coordinates":[27.891136429565506,40.389505582434026]},"properties":{"source":"awmc","source_id":"urban_areas#65","place_code":"awmc:urban_areas_unnamed_65","name_en":null,"name_zh":null,"place_type":"urban_area","start_year":null,"end_year":null,"source_props":{"contributo":null,"descriptio":null,"notes":null,"pleiadesid":null,"timeperiod":null,"title":null,"type":null,"initial_pr":null,"citations":null,"awmc_dataset":"urban_areas"}}},{"type":"Feature","geometry":{"type":"Point","coordinates":[29.721655781350734,40.437253433284326]},"properties":{"source":"awmc","source_id":"urban_areas#66","place_code":"awmc:urban_areas_unnamed_66","name_en":null,"name_zh":null,"place_type":"urban_area","start_year":null,"end_year":null,"source_props":{"contributo":null,"descriptio":null,"notes":null,"pleiadesid":null,"timeperiod":null,"title":null,"type":null,"initial_pr":null,"citations":null,"awmc_dataset":"urban_areas"}}},{"type":"Feature","geometry":{"type":"Point","coordinates":[22.96700313112831,40.635157215371464]},"properties":{"source":"awmc","source_id":"491741","place_code":"awmc:thessalonica","name_en":"Thessalonica","name_zh":null,"place_type":"urban_area","start_year":null,"end_year":null,"source_props":{"contributo":"rmhorne","descriptio":null,"notes":null,"pleiadesid":"http://pleiades.stoa.org/places/491741","timeperiod":"http://n2t.net/ark:/99152/p03wskdxnzf","title":"Thessalonica","type":"http://vocab.getty.edu/aat/300008347","initial_pr":"http://www.worldcat.org/oclc/43970336","citations":null,"awmc_dataset":"urban_areas"}}},{"type":"Feature","geometry":{"type":"Point","coordinates":[20.734637425551142,39.00781382833458]},"properties":{"source":"awmc","source_id":"531013","place_code":"awmc:nicopolis","name_en":"Nicopolis","name_zh":null,"place_type":"urban_area","start_year":null,"end_year":null,"source_props":{"contributo":"rmhorne","descriptio":null,"notes":null,"pleiadesid":"http://pleiades.stoa.org/places/531013","timeperiod":"http://n2t.net/ark:/99152/p03wskdxnzf","title":"Nicopolis","type":"http://vocab.getty.edu/aat/300008347","initial_pr":"http://www.worldcat.org/oclc/43970336","citations":null,"awmc_dataset":"urban_areas"}}},{"type":"Feature","geometry":{"type":"Point","coordinates":[26.557404010741436,39.11469318051877]},"properties":{"source":"awmc","source_id":"550763","place_code":"awmc:mytilene","name_en":"Mytilene","name_zh":null,"place_type":"urban_area","start_year":null,"end_year":null,"source_props":{"contributo":"rmhorne","descriptio":null,"notes":null,"pleiadesid":"http://pleiades.stoa.org/places/550763","timeperiod":"http://n2t.net/ark:/99152/p03wskdxnzf","title":"Mytilene","type":"http://vocab.getty.edu/aat/300008347","initial_pr":"http://www.worldcat.org/oclc/43970336","citations":null,"awmc_dataset":"urban_areas"}}},{"type":"Feature","geometry":{"type":"Point","coordinates":[28.06715298325264,38.47747352315744]},"properties":{"source":"awmc","source_id":"550867","place_code":"awmc:sardis","name_en":"Sardis","name_zh":null,"place_type":"urban_area","start_year":null,"end_year":null,"source_props":{"contributo":"rmhorne","descriptio":null,"notes":null,"pleiadesid":"http://pleiades.stoa.org/places/550867","timeperiod":"http://n2t.net/ark:/99152/p03wskdxnzf","title":"Sardis","type":"http://vocab.getty.edu/aat/300008347","initial_pr":"http://www.worldcat.org/oclc/43970336","citations":null,"awmc_dataset":"urban_areas"}}},{"type":"Feature","geometry":{"type":"Point","coordinates":[27.139353547859287,38.42798073423623]},"properties":{"source":"awmc","source_id":"550893","place_code":"awmc:smyrna","name_en":"Smyrna","name_zh":null,"place_type":"urban_area","start_year":null,"end_year":null,"source_props":{"contributo":"rmhorne","descriptio":null,"notes":null,"pleiadesid":"http://pleiades.stoa.org/places/550893","timeperiod":"http://n2t.net/ark:/99152/p03wskdxnzf","title":"Smyrna","type":"http://vocab.getty.edu/aat/300008347","initial_pr":"http://www.worldcat.org/oclc/43970336","citations":null,"awmc_dataset":"urban_areas"}}},{"type":"Feature","geometry":{"type":"Point","coordinates":[23.72575916545793,37.97671261377644]},"properties":{"source":"awmc","source_id":"579885","place_code":"awmc:athens","name_en":"Athens","name_zh":null,"place_type":"urban_area","start_year":null,"end_year":null,"source_props":{"contributo":"rmhorne","descriptio":null,"notes":null,"pleiadesid":"http://pleiades.stoa.org/places/579885","timeperiod":"http://n2t.net/ark:/99152/p03wskd389m","title":"Athens","type":"http://vocab.getty.edu/aat/300008347","initial_pr":"http://www.worldcat.org/oclc/43970336","citations":null,"awmc_dataset":"urban_areas"}}},{"type":"Feature","geometry":{"type":"Point","coordinates":[23.65075855455416,37.94330498125461]},"properties":{"source":"awmc","source_id":"580062","place_code":"awmc:peiraieus","name_en":"Peiraieus","name_zh":null,"place_type":"urban_area","start_year":null,"end_year":null,"source_props":{"contributo":"rmhorne","descriptio":null,"notes":null,"pleiadesid":"http://pleiades.stoa.org/places/580062","timeperiod":"http://n2t.net/ark:/99152/p03wskd389m","title":"Peiraieus","type":"http://vocab.getty.edu/aat/300008347","initial_pr":"http://www.worldcat.org/oclc/43970336","citations":null,"awmc_dataset":"urban_areas"}}},{"type":"Feature","geometry":{"type":"Point","coordinates":[23.696253848985634,37.932264282187504]},"properties":{"source":"awmc","source_id":"580072","place_code":"awmc:phaleron","name_en":"Phaleron","name_zh":null,"place_type":"urban_area","start_year":null,"end_year":null,"source_props":{"contributo":"rmhorne","descriptio":null,"notes":null,"pleiadesid":"http://pleiades.stoa.org/places/580072","timeperiod":"http://n2t.net/ark:/99152/p03wskdxnzf","title":"Phaleron","type":"http://vocab.getty.edu/aat/300008347","initial_pr":"http://www.worldcat.org/oclc/43970336","citations":null,"awmc_dataset":"urban_areas"}}},{"type":"Feature","geometry":{"type":"Point","coordinates":[22.882620952652047,37.90460542745572]},"properties":{"source":"awmc","source_id":"570182","place_code":"awmc:corinth","name_en":"Corinth","name_zh":null,"place_type":"urban_area","start_year":null,"end_year":null,"source_props":{"contributo":"rmhorne","descriptio":null,"notes":null,"pleiadesid":"http://pleiades.stoa.org/places/570182","timeperiod":"http://n2t.net/ark:/99152/p03wskdxnzf","title":"Corinth","type":"http://vocab.getty.edu/aat/300008347","initial_pr":"http://www.worldcat.org/oclc/43970336","citations":null,"awmc_dataset":"urban_areas"}}},{"type":"Feature","geometry":{"type":"Point","coordinates":[27.27438820222406,37.534714816822316]},"properties":{"source":"awmc","source_id":"599799","place_code":"awmc:miletus","name_en":"Miletus","name_zh":null,"place_type":"urban_area","start_year":null,"end_year":null,"source_props":{"contributo":"rmhorne","descriptio":null,"notes":null,"pleiadesid":"http://pleiades.stoa.org/places/599799","timeperiod":"http://n2t.net/ark:/99152/p03wskdxnzf","title":"Miletus","type":"http://vocab.getty.edu/aat/300008347","initial_pr":"http://www.worldcat.org/oclc/43970336","citations":null,"awmc_dataset":"urban_areas"}}},{"type":"Feature","geometry":{"type":"Point","coordinates":[27.42010639422105,37.0378516326582]},"properties":{"source":"awmc","source_id":"599636","place_code":"awmc:halicarnassus","name_en":"Halicarnassus","name_zh":null,"place_type":"urban_area","start_year":null,"end_year":null,"source_props":{"contributo":"rmhorne","descriptio":null,"notes":null,"pleiadesid":"http://pleiades.stoa.org/places/599636","timeperiod":"http://n2t.net/ark:/99152/p03wskdxnzf","title":"Halicarnassus","type":"http://vocab.getty.edu/aat/300008347","initial_pr":"http://www.worldcat.org/oclc/43970336","citations":null,"awmc_dataset":"urban_areas"}}},{"type":"Feature","geometry":{"type":"Point","coordinates":[28.959020516446458,41.02243042089955]},"properties":{"source":"awmc","source_id":"520998","place_code":"awmc:constantinople","name_en":"Constantinople","name_zh":null,"place_type":"urban_area","start_year":null,"end_year":null,"source_props":{"contributo":"rmhorne","descriptio":null,"notes":null,"pleiadesid":"http://pleiades.stoa.org/places/520998","timeperiod":"http://n2t.net/ark:/99152/p03wskdxnzf","title":"Constantinople","type":"http://vocab.getty.edu/aat/300008347","initial_pr":"http://www.worldcat.org/oclc/43970336","citations":null,"awmc_dataset":"urban_areas"}}},{"type":"Feature","geometry":{"type":"Point","coordinates":[35.03195025532062,39.748101228283986]},"properties":{"source":"awmc","source_id":"619244","place_code":"awmc:pteria","name_en":"Pteria","name_zh":null,"place_type":"urban_area","start_year":null,"end_year":null,"source_props":{"contributo":"rmhorne","descriptio":null,"notes":null,"pleiadesid":"http://pleiades.stoa.org/places/619244","timeperiod":"http://n2t.net/ark:/99152/p03wskdxnzf","title":"Pteria","type":"http://vocab.getty.edu/aat/300008347","initial_pr":"http://www.worldcat.org/oclc/43970336","citations":null,"awmc_dataset":"urban_areas"}}},{"type":"Feature","geometry":{"type":"Point","coordinates":[38.2825910131275,34.56220660397611]},"properties":{"source":"awmc","source_id":"668331","place_code":"awmc:palmyra_thadamora_hadrianopolis","name_en":"Palmyra/Thadamora/Hadrianopolis","name_zh":null,"place_type":"urban_area","start_year":null,"end_year":null,"source_props":{"contributo":"rmhorne","descriptio":null,"notes":null,"pleiadesid":"http://pleiades.stoa.org/places/668331","timeperiod":"http://n2t.net/ark:/99152/p03wskdxnzf","title":"Palmyra/Thadamora/Hadrianopolis","type":"http://vocab.getty.edu/aat/300008347","initial_pr":"http://www.worldcat.org/oclc/43970336","citations":null,"awmc_dataset":"urban_areas"}}},{"type":"Feature","geometry":{"type":"Point","coordinates":[35.820967218765816,34.4550832694936]},"properties":{"source":"awmc","source_id":"668394","place_code":"awmc:tripolis","name_en":"Tripolis","name_zh":null,"place_type":"urban_area","start_year":null,"end_year":null,"source_props":{"contributo":"rmhorne","descriptio":null,"notes":null,"pleiadesid":"http://pleiades.stoa.org/places/668394","timeperiod":"http://n2t.net/ark:/99152/p03wskdxnzf","title":"Tripolis","type":"http://vocab.getty.edu/aat/300008347","initial_pr":"http://www.worldcat.org/oclc/43970336","citations":null,"awmc_dataset":"urban_areas"}}},{"type":"Feature","geometry":{"type":"Point","coordinates":[35.517732647927176,33.9015368979326]},"properties":{"source":"awmc","source_id":"678060","place_code":"awmc:berytus","name_en":"Berytus","name_zh":null,"place_type":"urban_area","start_year":null,"end_year":null,"source_props":{"contributo":"rmhorne","descriptio":null,"notes":null,"pleiadesid":"http://pleiades.stoa.org/places/678060","timeperiod":"http://n2t.net/ark:/99152/p03wskdxnzf","title":"Berytus","type":"http://vocab.getty.edu/aat/300008347","initial_pr":"http://www.worldcat.org/oclc/43970336","citations":null,"awmc_dataset":"urban_areas"}}},{"type":"Feature","geometry":{"type":"Point","coordinates":[36.20320777448677,34.01682178366514]},"properties":{"source":"awmc","source_id":"678179","place_code":"awmc:heliopolis_col_iulia_augusta_felix","name_en":"Heliopolis/Col. Iulia Augusta Felix","name_zh":null,"place_type":"urban_area","start_year":null,"end_year":null,"source_props":{"contributo":"rmhorne","descriptio":null,"notes":null,"pleiadesid":"http://pleiades.stoa.org/places/678179","timeperiod":"http://n2t.net/ark:/99152/p03wskdxnzf","title":"Heliopolis/Col. Iulia Augusta Felix","type":"http://vocab.getty.edu/aat/300008347","initial_pr":"http://www.worldcat.org/oclc/43970336","citations":null,"awmc_dataset":"urban_areas"}}},{"type":"Feature","geometry":{"type":"Point","coordinates":[36.312996105295696,33.51358957554203]},"properties":{"source":"awmc","source_id":"678106","place_code":"awmc:damascus","name_en":"Damascus","name_zh":null,"place_type":"urban_area","start_year":null,"end_year":null,"source_props":{"contributo":"rmhorne","descriptio":null,"notes":null,"pleiadesid":"http://pleiades.stoa.org/places/678106","timeperiod":"http://n2t.net/ark:/99152/p03wskdxnzf","title":"Damascus","type":"http://vocab.getty.edu/aat/300008347","initial_pr":"http://www.worldcat.org/oclc/43970336","citations":null,"awmc_dataset":"urban_areas"}}},{"type":"Feature","geometry":{"type":"Point","coordinates":[35.37762363867458,33.566381883724716]},"properties":{"source":"awmc","source_id":"678393","place_code":"awmc:sidon_col_aurelia_pia","name_en":"Sidon/Col. Aurelia Pia","name_zh":null,"place_type":"urban_area","start_year":null,"end_year":null,"source_props":{"contributo":"rmhorne","descriptio":null,"notes":null,"pleiadesid":"http://pleiades.stoa.org/places/678393","timeperiod":"http://n2t.net/ark:/99152/p03wskdxnzf","title":"Sidon/Col. Aurelia Pia","type":"http://vocab.getty.edu/aat/300008347","initial_pr":"http://www.worldcat.org/oclc/43970336","citations":null,"awmc_dataset":"urban_areas"}}},{"type":"Feature","geometry":{"type":"Point","coordinates":[36.47962024169013,32.52174774033051]},"properties":{"source":"awmc","source_id":"678073","place_code":"awmc:bostra_col_nova_traiana_alexandriana","name_en":"Bostra/Col. Nova Traiana Alexandriana","name_zh":null,"place_type":"urban_area","start_year":null,"end_year":null,"source_props":{"contributo":"rmhorne","descriptio":null,"notes":null,"pleiadesid":"http://pleiades.stoa.org/places/678073","timeperiod":"http://n2t.net/ark:/99152/p03wskdxnzf","title":"Bostra/Col. Nova Traiana Alexandriana","type":"http://vocab.getty.edu/aat/300008347","initial_pr":"http://www.worldcat.org/oclc/43970336","citations":null,"awmc_dataset":"urban_areas"}}},{"type":"Feature","geometry":{"type":"Point","coordinates":[32.56777740289377,31.046025000435066]},"properties":{"source":"awmc","source_id":"727192","place_code":"awmc:pelusium","name_en":"Pelusium","name_zh":null,"place_type":"urban_area","start_year":null,"end_year":null,"source_props":{"contributo":"rmhorne","descriptio":null,"notes":null,"pleiadesid":"http://pleiades.stoa.org/places/727192","timeperiod":"http://n2t.net/ark:/99152/p03wskdxnzf","title":"Pelusium","type":"http://vocab.getty.edu/aat/300008347","initial_pr":"http://www.worldcat.org/oclc/43970336","citations":null,"awmc_dataset":"urban_areas"}}},{"type":"Feature","geometry":{"type":"Point","coordinates":[31.260861326832156,29.86289568330244]},"properties":{"source":"awmc","source_id":"urban_areas#88","place_code":"awmc:urban_areas_unnamed_88","name_en":null,"name_zh":null,"place_type":"urban_area","start_year":null,"end_year":null,"source_props":{"contributo":null,"descriptio":null,"notes":null,"pleiadesid":null,"timeperiod":null,"title":null,"type":null,"initial_pr":null,"citations":null,"awmc_dataset":"urban_areas"}}},{"type":"Feature","geometry":{"type":"Point","coordinates":[35.14873648387237,42.024366971939315]},"properties":{"source":"awmc","source_id":"urban_areas#89","place_code":"awmc:urban_areas_unnamed_89","name_en":null,"name_zh":null,"place_type":"urban_area","start_year":null,"end_year":null,"source_props":{"contributo":null,"descriptio":null,"notes":null,"pleiadesid":null,"timeperiod":null,"title":null,"type":null,"initial_pr":null,"citations":null,"awmc_dataset":"urban_areas"}}},{"type":"Feature","geometry":{"type":"Point","coordinates":[44.58982566607378,33.129166982928496]},"properties":{"source":"awmc","source_id":"893976","place_code":"awmc:ctesiphon","name_en":"Ctesiphon","name_zh":null,"place_type":"urban_area","start_year":null,"end_year":null,"source_props":{"contributo":"rmhorne","descriptio":null,"notes":null,"pleiadesid":"http://pleiades.stoa.org/places/893976","timeperiod":"http://n2t.net/ark:/99152/p03wskdxnzf","title":"Ctesiphon","type":"http://vocab.getty.edu/aat/300008347","initial_pr":"http://www.worldcat.org/oclc/43970336","citations":null,"awmc_dataset":"urban_areas"}}},{"type":"Feature","geometry":{"type":"Point","coordinates":[44.56543619076402,33.100018585607074]},"properties":{"source":"awmc","source_id":"894178","place_code":"awmc:veh_ardashir_coche_mahoza_seleucia","name_en":"Veh Ardashir/Coche/Mahoza/'Seleucia'","name_zh":null,"place_type":"urban_area","start_year":null,"end_year":null,"source_props":{"contributo":"rmhorne","descriptio":null,"notes":null,"pleiadesid":"http://pleiades.stoa.org/places/894178","timeperiod":"http://n2t.net/ark:/99152/p03wskdxnzf","title":"Veh Ardashir/Coche/Mahoza/'Seleucia'","type":"http://vocab.getty.edu/aat/300008347","initial_pr":"http://www.worldcat.org/oclc/43970336","citations":null,"awmc_dataset":"urban_areas"}}},{"type":"Feature","geometry":{"type":"Point","coordinates":[44.52022643165324,33.08708026638786]},"properties":{"source":"awmc","source_id":"894084","place_code":"awmc:seleucia_sliq_kharawta","name_en":"Seleucia/Sliq Kharawta","name_zh":null,"place_type":"urban_area","start_year":null,"end_year":null,"source_props":{"contributo":"rmhorne","descriptio":null,"notes":null,"pleiadesid":"http://pleiades.stoa.org/places/894084","timeperiod":"http://n2t.net/ark:/99152/p03wskdxnzf","title":"Seleucia/Sliq Kharawta","type":"http://vocab.getty.edu/aat/300008347","initial_pr":"http://www.worldcat.org/oclc/43970336","citations":null,"awmc_dataset":"urban_areas"}}},{"type":"Feature","geometry":{"type":"Point","coordinates":[44.43571392537865,32.537002419712564]},"properties":{"source":"awmc","source_id":"893951","place_code":"awmc:babylon","name_en":"Babylon","name_zh":null,"place_type":"urban_area","start_year":null,"end_year":null,"source_props":{"contributo":"rmhorne","descriptio":null,"notes":null,"pleiadesid":"http://pleiades.stoa.org/places/893951","timeperiod":"http://n2t.net/ark:/99152/p03wskdxnzf","title":"Babylon","type":"http://vocab.getty.edu/aat/300008347","initial_pr":"http://www.worldcat.org/oclc/43970336","citations":null,"awmc_dataset":"urban_areas"}}},{"type":"Feature","geometry":{"type":"Point","coordinates":[44.603822845440476,32.54521156018254]},"properties":{"source":"awmc","source_id":"894028","place_code":"awmc:kish","name_en":"Kish","name_zh":null,"place_type":"urban_area","start_year":null,"end_year":null,"source_props":{"contributo":"rmhorne","descriptio":null,"notes":null,"pleiadesid":"http://pleiades.stoa.org/places/894028","timeperiod":"http://n2t.net/ark:/99152/p03wskdxnzf","title":"Kish","type":"http://vocab.getty.edu/aat/300008347","initial_pr":"http://www.worldcat.org/oclc/43970336","citations":null,"awmc_dataset":"urban_areas"}}},{"type":"Feature","geometry":{"type":"Point","coordinates":[35.03195025532062,39.748101228283986]},"properties":{"source":"awmc","source_id":"619244","place_code":"awmc:pteria_2","name_en":"Pteria","name_zh":null,"place_type":"urban_area","start_year":null,"end_year":null,"source_props":{"contributo":"rmhorne","descriptio":null,"notes":null,"pleiadesid":"http://pleiades.stoa.org/places/619244","timeperiod":"http://n2t.net/ark:/99152/p03wskdxnzf","title":"Pteria","type":"http://vocab.getty.edu/aat/300008347","initial_pr":"http://www.worldcat.org/oclc/43970336","citations":null,"awmc_dataset":"urban_areas"}}}]}